NORAD_CAT_ID,OBJECT_NAME,OBJECT_TYPE,EPOCH,MEAN_MOTION,ECCENTRICITY,INCLINATION,RA_OF_ASC_NODE,ARG_OF_PERICENTER,MEAN_ANOMALY,BSTAR,MEAN_MOTION_DOT,MEAN_MOTION_DDOT,TLE_LINE0,TLE_LINE1,TLE_LINE2,SEMIMAJOR_AXIS,PERIOD,APOGEE,PERIGEE,DECAYED
49176.0,STARLINK-3069,PAYLOAD,2023-05-09 23:49:02,14.98316409,0.0003145,69.9995,343.2925,268.5273,91.5526,-9.9894e-06,-2.12e-06,0.0,0 STARLINK-3069,1 49176U 21082AY  23129.99238596 -.00000212  00000-0 -99894-5 0  9999,2 49176  69.9995 343.2925 0003145 268.5273  91.5526 14.98316409 91979,6950.235,96.108,574.286,569.914,0.0
49176.0,STARLINK-3069,PAYLOAD,2023-05-10 20:38:45,14.98337774,0.0003227,69.9992,341.1041,268.9922,91.0867,2.2631e-05,1.77e-06,0.0,0 STARLINK-3069,1 49176U 21082AY  23130.86025314  .00000177  00000-0  22631-4 0  9991,2 49176  69.9992 341.1041 0003227 268.9922  91.0867 14.98337774 92105,6950.169,96.107,574.277,569.791,0.0
49176.0,STARLINK-3069,PAYLOAD,2023-05-10 23:51:01,14.9833846,0.0003217,69.9993,340.7675,269.0557,91.0234,3.233e-05,2.93e-06,0.0,0 STARLINK-3069,1 49176U 21082AY  23130.99377197  .00000293  00000-0  32330-4 0  9990,2 49176  69.9993 340.7675 0003217 269.0557  91.0234 14.98338460 92122,6950.167,96.106,574.268,569.796,0.0
49176.0,STARLINK-3069,PAYLOAD,2023-05-11 20:40:46,14.98329632,0.0003263,69.9992,338.5795,268.4881,91.5904,0.00015291,1.732e-05,0.0,0 STARLINK-3069,1 49176U 21082AY  23131.86165299  .00001732  00000-0  15291-3 0  9990,2 49176  69.9992 338.5795 0003263 268.4881  91.5904 14.98329632 92257,6950.194,96.107,574.327,569.791,0.0
49176.0,STARLINK-3069,PAYLOAD,2023-05-11 23:53:02,14.98331655,0.0003228,69.9993,338.2427,268.318,91.7609,0.00017114,1.95e-05,0.0,0 STARLINK-3069,1 49176U 21082AY  23131.99517141  .00001950  00000-0  17114-3 0  9999,2 49176  69.9993 338.2427 0003228 268.3180  91.7609 14.98331655 92273,6950.188,96.107,574.296,569.809,0.0
49176.0,STARLINK-3069,PAYLOAD,2023-05-12 17:30:31,14.98334367,0.0003137,69.9994,336.3911,268.1502,91.9298,-3.1764e-06,-1.31e-06,0.0,0 STARLINK-3069,1 49176U 21082AY  23132.72953327 -.00000131  00000-0 -31764-5 0  9992,2 49176  69.9994 336.3911 0003137 268.1502  91.9298 14.98334367 92387,6950.179,96.107,574.225,569.864,0.0
49176.0,STARLINK-3069,PAYLOAD,2023-05-12 23:55:03,14.98336787,0.0003103,69.9996,335.7179,267.9054,92.1749,2.5097e-05,2.06e-06,0.0,0 STARLINK-3069,1 49176U 21082AY  23132.99657007  .00000206  00000-0  25097-4 0  9999,2 49176  69.9996 335.7179 0003103 267.9054  92.1749 14.98336787 92427,6950.172,96.107,574.194,569.88,0.0
49176.0,STARLINK-3069,PAYLOAD,2023-05-13 20:44:48,14.98334901,0.000302,69.9998,333.5312,261.2018,98.8799,7.8294e-06,0.0,0.0,0 STARLINK-3069,1 49176U 21082AY  23133.86444806  .00000000  00000-0  78294-5 0  9997,2 49176  69.9998 333.5312 0003020 261.2018  98.8799 14.98334901 92557,6950.178,96.107,574.142,569.944,0.0
49176.0,STARLINK-3069,PAYLOAD,2023-05-14 06:21:36,14.98332129,0.000303,69.9999,332.5194,268.8422,91.239,2.1647e-06,-6.7e-07,0.0,0 STARLINK-3069,1 49176U 21082AY  23134.26500948 -.00000067  00000-0  21647-5 0  9996,2 49176  69.9999 332.5194 0003030 268.8422  91.2390 14.98332129 92619,6950.186,96.107,574.157,569.945,0.0
49176.0,STARLINK-3069,PAYLOAD,2023-05-14 14:22:17,14.98330531,0.0003049,69.9996,331.6786,268.6559,91.4251,-1.3136e-05,-2.5e-06,0.0,0 STARLINK-3069,1 49176U 21082AY  23134.59881038 -.00000250  00000-0 -13136-4 0  9992,2 49176  69.9996 331.6786 0003049 268.6559  91.4251 14.98330531 92660,6950.191,96.107,574.175,569.937,0.0
49176.0,STARLINK-3069,PAYLOAD,2023-05-14 20:46:49,14.98329591,0.000308,69.9994,331.0048,269.6136,90.467,-2.4977e-05,-3.91e-06,0.0,0 STARLINK-3069,1 49176U 21082AY  23134.86585114 -.00000391  00000-0 -24977-4 0  9999,2 49176  69.9994 331.0048 0003080 269.6136  90.4670 14.98329591 92703,6950.194,96.107,574.2,569.918,0.0
49176.0,STARLINK-3069,PAYLOAD,2023-05-15 06:23:38,14.9832796,0.0003086,69.9993,329.9948,270.5849,89.4956,-4.7348e-05,-6.58e-06,0.0,0 STARLINK-3069,1 49176U 21082AY  23135.26641294 -.00000658  00000-0 -47348-4 0  9999,2 49176  69.9993 329.9948 0003086 270.5849  89.4956 14.98327960 92764,6950.199,96.107,574.209,569.919,0.0
49176.0,STARLINK-3069,PAYLOAD,2023-05-15 19:12:42,14.98329378,0.0003131,69.9991,328.648,270.1764,89.9036,-9.0454e-06,-2.01e-06,0.0,0 STARLINK-3069,1 49176U 21082AY  23135.80049121 -.00000201  00000-0 -90454-5 0  9991,2 49176  69.9991 328.6480 0003131 270.1764  89.9036 14.98329378 92840,6950.195,96.107,574.236,569.884,0.0
49176.0,STARLINK-3069,PAYLOAD,2023-05-16 12:50:10,14.98330388,0.0003241,69.9987,326.7956,269.7328,90.346,8.3146e-05,8.99e-06,0.0,0 STARLINK-3069,1 49176U 21082AY  23136.53484794  .00000899  00000-0  83146-4 0  9991,2 49176  69.9987 326.7956 0003241 269.7328  90.3460 14.98330388 92956,6950.192,96.107,574.309,569.804,0.0
49176.0,STARLINK-3069,PAYLOAD,2023-05-16 19:14:42,14.98333131,0.0003253,69.9987,326.122,269.4639,90.6147,8.8421e-05,9.62e-06,0.0,0 STARLINK-3069,1 49176U 21082AY  23136.80188577  .00000962  00000-0  88421-4 0  9993,2 49176  69.9987 326.1220 0003253 269.4639  90.6147 14.98333131 92997,6950.183,96.107,574.309,569.787,0.0
49176.0,STARLINK-3069,PAYLOAD,2023-05-17 19:16:44,14.98328347,0.0003253,69.9986,323.5967,268.9446,91.134,2.1788e-05,1.67e-06,0.0,0 STARLINK-3069,1 49176U 21082AY  23137.80329044  .00000167  00000-0  21788-4 0  9990,2 49176  69.9986 323.5967 0003253 268.9446  91.1340 14.98328347 93147,6950.198,96.107,574.324,569.802,0.0
49176.0,STARLINK-3069,PAYLOAD,2023-05-17 20:52:52,14.9832826,0.0003263,69.9988,323.4284,269.0133,91.0652,1.8885e-05,1.32e-06,0.0,0 STARLINK-3069,1 49176U 21082AY  23137.87005065  .00000132  00000-0  18885-4 0  9997,2 49176  69.9988 323.4284 0003263 269.0133  91.0652 14.98328260 93156,6950.198,96.107,574.331,569.795,0.0
49176.0,STARLINK-3069,PAYLOAD,2023-05-18 12:54:12,14.98333728,0.000323,69.999,321.7452,268.9507,91.1282,-8.9299e-06,-2e-06,0.0,0 STARLINK-3069,1 49176U 21082AY  23138.53764775 -.00000200  00000-0 -89299-5 0  9997,2 49176  69.9990 321.7452 0003230 268.9507  91.1282 14.98333728 93250,6950.181,96.107,574.291,569.801,0.0
49176.0,STARLINK-3069,PAYLOAD,2023-05-18 19:18:44,14.98334192,0.0003228,69.999,321.0718,268.8726,91.2063,-1.8403e-06,-1.15e-06,0.0,0 STARLINK-3069,1 49176U 21082AY  23138.80468657 -.00000115  00000-0 -18403-5 0  9991,2 49176  69.9990 321.0718 0003228 268.8726  91.2063 14.98334192 93295,6950.18,96.107,574.288,569.801,0.0
49176.0,STARLINK-3069,PAYLOAD,2023-05-19 20:56:54,14.98328125,0.000327,69.9989,318.3789,266.5627,93.5158,2.1954e-05,1.69e-06,0.0,0 STARLINK-3069,1 49176U 21082AY  23139.87284919  .00000169  00000-0  21954-4 0  9997,2 49176  69.9989 318.3789 0003270 266.5627  93.5158 14.98328125 93459,6950.199,96.107,574.336,569.791,0.0
49176.0,STARLINK-3069,PAYLOAD,2023-05-19 22:33:02,14.98329407,0.0003251,69.999,318.2106,266.482,93.5968,3.5823e-05,3.34e-06,0.0,0 STARLINK-3069,1 49176U 21082AY  23139.93960810  .00000334  00000-0  35823-4 0  9999,2 49176  69.9990 318.2106 0003251 266.4820  93.5968 14.98329407 93460,6950.195,96.107,574.319,569.8,0.0
49176.0,STARLINK-3069,PAYLOAD,2023-05-20 19:22:46,14.98337511,0.0003215,69.9989,316.022,267.8714,92.2077,6.5588e-05,6.9e-06,0.0,0 STARLINK-3069,1 49176U 21082AY  23140.80748130  .00000690  00000-0  65588-4 0  9992,2 49176  69.9989 316.0220 0003215 267.8714  92.2077 14.98337511 93594,6950.17,96.107,574.269,569.8,0.0
49176.0,STARLINK-3069,PAYLOAD,2023-05-20 20:58:54,14.9833865,0.0003204,69.9989,315.8536,268.0831,91.9962,7.5903e-05,8.13e-06,0.0,0 STARLINK-3069,1 49176U 21082AY  23140.87424002  .00000813  00000-0  75903-4 0  9997,2 49176  69.9989 315.8536 0003204 268.0831  91.9962 14.98338650 93608,6950.166,96.106,574.258,569.804,0.0
49176.0,STARLINK-3069,PAYLOAD,2023-05-21 04:59:35,14.98332294,0.0003285,69.9992,315.0139,268.9038,91.1745,6.3264e-06,-1.8e-07,0.0,0 STARLINK-3069,1 49176U 21082AY  23141.20804528 -.00000018  00000-0  63264-5 0  9996,2 49176  69.9992 315.0139 0003285 268.9038  91.1745 14.98332294 93654,6950.186,96.107,574.334,569.768,0.0
49176.0,STARLINK-3069,PAYLOAD,2023-05-21 11:24:07,14.98326324,0.0002953,70.0,314.3424,268.6478,91.4342,-4.6809e-05,-6.51e-06,0.0,0 STARLINK-3069,1 49176U 21082AY  23141.47509166 -.00000651  00000-0 -46809-4 0  9994,2 49176  70.0000 314.3424 0002953 268.6478  91.4342 14.98326324 93699,6950.204,96.107,574.122,570.017,0.0
49176.0,STARLINK-3069,PAYLOAD,2023-05-21 17:48:40,14.98323998,0.0003025,69.9991,313.6661,267.9189,92.1624,-4.7749e-05,-6.63e-06,0.0,0 STARLINK-3069,1 49176U 21082AY  23141.74213345 -.00000663  00000-0 -47749-4 0  9992,2 49176  69.9991 313.6661 0003025 267.9189  92.1624 14.98323998 93732,6950.211,96.107,574.179,569.974,0.0
49176.0,STARLINK-3069,PAYLOAD,2023-05-22 11:26:08,14.98332451,0.0003309,69.9987,311.8139,271.6253,88.4527,2.5799e-06,-6.2e-07,0.0,0 STARLINK-3069,1 49176U 21082AY  23142.47648842 -.00000062  00000-0  25799-5 0  9991,2 49176  69.9987 311.8139 0003309 271.6253  88.4527 14.98332451 93842,6950.185,96.107,574.35,569.75,0.0
49176.0,STARLINK-3069,PAYLOAD,2023-05-22 17:50:40,14.98337346,0.0003176,69.9987,311.1401,269.2551,90.8244,1.7315e-05,1.14e-06,0.0,0 STARLINK-3069,1 49176U 21082AY  23142.74352460  .00000114  00000-0  17315-4 0  9990,2 49176  69.9987 311.1401 0003176 269.2551  90.8244 14.98337346 93888,6950.17,96.107,574.243,569.828,0.0
49176.0,STARLINK-3069,PAYLOAD,2023-05-23 11:28:09,14.98323486,0.0003361,69.9987,309.2885,272.7429,87.3345,0.00011812,1.316e-05,0.0,0 STARLINK-3069,1 49176U 21082AY  23143.47788971  .00001316  00000-0  11812-3 0  9991,2 49176  69.9987 309.2885 0003361 272.7429  87.3345 14.98323486 93996,6950.213,96.107,574.414,569.742,0.0
49176.0,STARLINK-3069,PAYLOAD,2023-05-23 19:28:49,14.98327261,0.0003358,69.9988,308.4467,272.4557,87.6217,0.00011226,1.247e-05,0.0,0 STARLINK-3069,1 49176U 21082AY  23143.81168846  .00001247  00000-0  11226-3 0  9994,2 49176  69.9988 308.4467 0003358 272.4557  87.6217 14.98327261 94042,6950.201,96.107,574.4,569.732,0.0
